IRIDIUM 119             
1 42959U 17061E   23310.60035042  .00000936  00000+0  32712-3 0  9998
2 42959  86.3975  63.7521 0001728  98.5415 261.5976 14.34222083318134
IRIDIUM 107             
1 42960U 17061F   23310.61937911  .00000894  00000+0  31210-3 0  9992
2 42960  86.3976  63.7597 0002008 101.2320 258.9101 14.34220886318149
IRIDIUM 132             
1 42961U 17061G   23310.55595263  .00000764  00000+0  26567-3 0  9991
2 42961  86.3975  63.7722 0001884 101.0194 259.1213 14.34222280318133
IRIDIUM 136             
1 42962U 17061H   23310.79697227  .00000869  00000+0  30331-3 0  9991
2 42962  86.3976  63.6736 0001782  90.0806 270.0594 14.34221640318181
IRIDIUM 139             
1 42963U 17061J   23310.80331266  .00000859  00000+0  29966-3 0  9993
2 42963  86.3976  63.7178 0001981 100.6958 259.4460 14.34222834318190
IRIDIUM 125             
1 42964U 17061K   23310.58132265  .00000899  00000+0  31380-3 0  9994
2 42964  86.3977  63.8541 0001770  99.4083 260.7313 14.34221118318171
IRIDIUM 135             
1 43070U 17083A   23310.69498829  .00000532  00000+0  18302-3 0  9993
2 43070  86.4002   0.5212 0002456  94.7661 265.3815 14.34221174307487
IRIDIUM 138             
1 43071U 17083B   23310.58081936  .00000686  00000+0  23779-3 0  9993
2 43071  86.3991   0.3144 0001938  95.4482 264.6934 14.34222505307459
